{
  "type": "FeatureCollection",
  "features": [
    {
      "type": "Feature",
      "properties": {
        "norad_id": 66440,
        "name": "STARLINK-35405",
        "group": "last-30-days",
        "lat": -22.11121952617347,
        "lon": -95.79904847283844,
        "alt_km": 445.785641616274,
        "timestamp": "2025-12-10T20:49:51.343749+00:00",
        "meta_object_name": "STARLINK-35405",
        "meta_object_id": "2025-259U",
        "meta_epoch": "2025-12-10T16:00:01.999584",
        "meta_mean_motion": 15.40672093,
        "meta_eccentricity": 0.00014667,
        "meta_inclination": 43.0002,
        "meta_ra_of_asc_node": 59.5124,
        "meta_arg_of_pericenter": 276.0661,
        "meta_mean_anomaly": 259.7536,
        "meta_ephemeris_type": 0,
        "meta_classification_type": "U",
        "meta_norad_cat_id": 66440,
        "meta_element_set_no": 999,
        "meta_rev_at_epoch": 594,
        "meta_bstar": 0.00067350478,
        "meta_mean_motion_dot": 0.00027907,
        "meta_mean_motion_ddot": 0,
        "tle_line1": "1 66440U 25259U   25344.66668981  .00027907  00000+0  67350-3 0  9999",
        "tle_line2": "2 66440  43.0002  59.5124 0001466 276.0661 259.7536 15.40672093  5944"
      },
      "geometry": {
        "type": "Point",
        "coordinates": [
          -95.79904847283844,
          -22.11121952617347
        ]
      }
    },
    {
      "type": "Feature",
      "properties": {
        "norad_id": 66441,
        "name": "STARLINK-35426",
        "group": "last-30-days",
        "lat": -29.332650502589388,
        "lon": -84.59305739372701,
        "alt_km": 446.3480175950517,
        "timestamp": "2025-12-10T20:49:51.343760+00:00",
        "meta_object_name": "STARLINK-35426",
        "meta_object_id": "2025-259V",
        "meta_epoch": "2025-12-10T16:00:01.999584",
        "meta_mean_motion": 15.40605914,
        "meta_eccentricity": 0.00014897,
        "meta_inclination": 43.0005,
        "meta_ra_of_asc_node": 59.4814,
        "meta_arg_of_pericenter": 285.0687,
        "meta_mean_anomaly": 263.2205,
        "meta_ephemeris_type": 0,
        "meta_classification_type": "U",
        "meta_norad_cat_id": 66441,
        "meta_element_set_no": 999,
        "meta_rev_at_epoch": 594,
        "meta_bstar": 0.0028589709,
        "meta_mean_motion_dot": 0.00120651,
        "meta_mean_motion_ddot": 0,
        "tle_line1": "1 66441U 25259V   25344.66668981  .00120651  00000+0  28590-2 0  9992",
        "tle_line2": "2 66441  43.0005  59.4814 0001489 285.0687 263.2205 15.40605914  5947"
      },
      "geometry": {
        "type": "Point",
        "coordinates": [
          -84.59305739372701,
          -29.332650502589388
        ]
      }
    },
    {
      "type": "Feature",
      "properties": {
        "norad_id": 66442,
        "name": "STARLINK-34724",
        "group": "last-30-days",
        "lat": -35.47370741431839,
        "lon": -71.82806048169498,
        "alt_km": 445.39164437844374,
        "timestamp": "2025-12-10T20:49:51.343772+00:00",
        "meta_object_name": "STARLINK-34724",
        "meta_object_id": "2025-259W",
        "meta_epoch": "2025-12-10T16:00:01.999584",
        "meta_mean_motion": 15.41649343,
        "meta_eccentricity": 0.00013852,
        "meta_inclination": 43.0009,
        "meta_ra_of_asc_node": 59.4538,
        "meta_arg_of_pericenter": 291.0705,
        "meta_mean_anomaly": 269.1175,
        "meta_ephemeris_type": 0,
        "meta_classification_type": "U",
        "meta_norad_cat_id": 66442,
        "meta_element_set_no": 999,
        "meta_rev_at_epoch": 594,
        "meta_bstar": -0.034472056,
        "meta_mean_motion_dot": -0.01356337,
        "meta_mean_motion_ddot": 0,
        "tle_line1": "1 66442U 25259W   25344.66668981 -.01356337  00000+0 -34472-1 0  9993",
        "tle_line2": "2 66442  43.0009  59.4538 0001385 291.0705 269.1175 15.41649343  5944"
      },
      "geometry": {
        "type": "Point",
        "coordinates": [
          -71.82806048169498,
          -35.47370741431839
        ]
      }
    },
    {
      "type": "Feature",
      "properties": {
        "norad_id": 66443,
        "name": "STARLINK-35219",
        "group": "last-30-days",
        "lat": -39.75461494532002,
        "lon": -58.528889415186384,
        "alt_km": 441.67977256689846,
        "timestamp": "2025-12-10T20:49:51.343783+00:00",
        "meta_object_name": "STARLINK-35219",
        "meta_object_id": "2025-259X",
        "meta_epoch": "2025-12-10T16:00:01.999584",
        "meta_mean_motion": 15.43174142,
        "meta_eccentricity": 0.00010592,
        "meta_inclination": 43.0007,
        "meta_ra_of_asc_node": 59.4282,
        "meta_arg_of_pericenter": 281.6111,
        "meta_mean_anomaly": 288.9422,
        "meta_ephemeris_type": 0,
        "meta_classification_type": "U",
        "meta_norad_cat_id": 66443,
        "meta_element_set_no": 999,
        "meta_rev_at_epoch": 584,
        "meta_bstar": -0.045957195,
        "meta_mean_motion_dot": -0.01872837,
        "meta_mean_motion_ddot": 0,
        "tle_line1": "1 66443U 25259X   25344.66668981 -.01872837  00000+0 -45957-1 0  9992",
        "tle_line2": "2 66443  43.0007  59.4282 0001059 281.6111 288.9422 15.43174142  5848"
      },
      "geometry": {
        "type": "Point",
        "coordinates": [
          -58.528889415186384,
          -39.75461494532002
        ]
      }
    },
    {
      "type": "Feature",
      "properties": {
        "norad_id": 66444,
        "name": "STARLINK-35360",
        "group": "last-30-days",
        "lat": -41.2602394463289,
        "lon": -12.121023171905739,
        "alt_km": 410.383521768219,
        "timestamp": "2025-12-10T20:49:51.343793+00:00",
        "meta_object_name": "STARLINK-35360",
        "meta_object_id": "2025-259Y",
        "meta_epoch": "2025-12-10T11:52:55.103808",
        "meta_mean_motion": 15.51073811,
        "meta_eccentricity": 0.00114819,
        "meta_inclination": 43.0003,
        "meta_ra_of_asc_node": 60.358,
        "meta_arg_of_pericenter": 244.0762,
        "meta_mean_anomaly": 115.8915,
        "meta_ephemeris_type": 0,
        "meta_classification_type": "U",
        "meta_norad_cat_id": 66444,
        "meta_element_set_no": 999,
        "meta_rev_at_epoch": 582,
        "meta_bstar": 0.0028942031,
        "meta_mean_motion_dot": 0.00176816,
        "meta_mean_motion_ddot": 0,
        "tle_line1": "1 66444U 25259Y   25344.49508222  .00176816  00000+0  28942-2 0  9992",
        "tle_line2": "2 66444  43.0003  60.3580 0011481 244.0762 115.8915 15.51073811  5825"
      },
      "geometry": {
        "type": "Point",
        "coordinates": [
          -12.121023171905739,
          -41.2602394463289
        ]
      }
    },
    {
      "type": "Feature",
      "properties": {
        "norad_id": 66445,
        "name": "STARLINK-34698",
        "group": "last-30-days",
        "lat": -42.12526631512918,
        "lon": -45.71072555085543,
        "alt_km": 437.80028531954576,
        "timestamp": "2025-12-10T20:49:51.343804+00:00",
        "meta_object_name": "STARLINK-34698",
        "meta_object_id": "2025-259Z",
        "meta_epoch": "2025-12-10T16:00:01.999584",
        "meta_mean_motion": 15.44537646,
        "meta_eccentricity": 0.00011662,
        "meta_inclination": 43.0001,
        "meta_ra_of_asc_node": 59.4056,
        "meta_arg_of_pericenter": 283.1746,
        "meta_mean_anomaly": 296.4,
        "meta_ephemeris_type": 0,
        "meta_classification_type": "U",
        "meta_norad_cat_id": 66445,
        "meta_element_set_no": 999,
        "meta_rev_at_epoch": 583,
        "meta_bstar": -0.047034487,
        "meta_mean_motion_dot": -0.0199381,
        "meta_mean_motion_ddot": 0,
        "tle_line1": "1 66445U 25259Z   25344.66668981 -.01993810  00000+0 -47034-1 0  9997",
        "tle_line2": "2 66445  43.0001  59.4056 0001166 283.1746 296.4000 15.44537646  5831"
      },
      "geometry": {
        "type": "Point",
        "coordinates": [
          -45.71072555085543,
          -42.12526631512918
        ]
      }
    },
    {
      "type": "Feature",
      "properties": {
        "norad_id": 66446,
        "name": "STARLINK-34986",
        "group": "last-30-days",
        "lat": -42.18025857445904,
        "lon": -18.327750560103443,
        "alt_km": 417.2091816933107,
        "timestamp": "2025-12-10T20:49:51.343817+00:00",
        "meta_object_name": "STARLINK-34986",
        "meta_object_id": "2025-259AA",
        "meta_epoch": "2025-12-10T11:53:56.096160",
        "meta_mean_motion": 15.5041251,
        "meta_eccentricity": 0.00107427,
        "meta_inclination": 42.9988,
        "meta_ra_of_asc_node": 60.3635,
        "meta_arg_of_pericenter": 198.1477,
        "meta_mean_anomaly": 161.9001,
        "meta_ephemeris_type": 0,
        "meta_classification_type": "U",
        "meta_norad_cat_id": 66446,
        "meta_element_set_no": 999,
        "meta_rev_at_epoch": 582,
        "meta_bstar": 0.0021857098,
        "meta_mean_motion_dot": 0.00129517,
        "meta_mean_motion_ddot": 0,
        "tle_line1": "1 66446U 25259AA  25344.49578815  .00129517  00000+0  21857-2 0  9993",
        "tle_line2": "2 66446  42.9988  60.3635 0010742 198.1477 161.9001 15.50412510  5829"
      },
      "geometry": {
        "type": "Point",
        "coordinates": [
          -18.327750560103443,
          -42.18025857445904
        ]
      }
    }
  ]
}